NORAD_CAT_ID,OBJECT_NAME,OBJECT_TYPE,EPOCH,MEAN_MOTION,ECCENTRICITY,INCLINATION,RA_OF_ASC_NODE,ARG_OF_PERICENTER,MEAN_ANOMALY,BSTAR,MEAN_MOTION_DOT,MEAN_MOTION_DDOT,TLE_LINE0,TLE_LINE1,TLE_LINE2,SEMIMAJOR_AXIS,PERIOD,APOGEE,PERIGEE,DECAYED
53273.0,STARLINK-4051,PAYLOAD,2023-12-19 22:00:59,15.08836882,0.0001709,53.216,223.827,118.4715,241.6449,-3.9271e-05,-9.13e-06,0.0,0 STARLINK-4051,1 53273U 22086AH  23353.91735127 -.00000913  00000-0 -39271-4 0  9990,2 53273  53.2160 223.8270 0001709 118.4715 241.6449 15.08836882 78797,6917.89,95.438,540.937,538.573,0.0
53273.0,STARLINK-4051,PAYLOAD,2023-12-20 20:16:22,15.08848153,0.0001548,53.2159,219.6568,80.9896,279.1271,-4.5834e-05,-1.018e-05,0.0,0 STARLINK-4051,1 53273U 22086AH  23354.84470746 -.00001018  00000-0 -45834-4 0  9995,2 53273  53.2159 219.6568 0001548  80.9896 279.1271 15.08848153 78762,6917.855,95.437,540.791,538.65,0.0
53273.0,STARLINK-4051,PAYLOAD,2023-12-20 21:51:45,15.08851328,0.0001575,53.2158,219.359,85.4986,274.6186,1.1316e-05,-1.08e-06,0.0,0 STARLINK-4051,1 53273U 22086AH  23354.91094374 -.00000108  00000-0  11316-4 0  9998,2 53273  53.2158 219.3590 0001575  85.4986 274.6186 15.08851328 78946,6917.846,95.437,540.8,538.621,0.0
53273.0,STARLINK-4051,PAYLOAD,2023-12-21 21:42:33,15.0883439,0.0001489,53.2151,214.8983,89.9529,270.1634,8.694e-05,1.096e-05,0.0,0 STARLINK-4051,1 53273U 22086AH  23355.90455741  .00001096  00000-0  86940-4 0  9998,2 53273  53.2151 214.8983 0001489  89.9529 270.1634 15.08834390 79097,6917.898,95.438,540.793,538.732,0.0
53273.0,STARLINK-4051,PAYLOAD,2023-12-22 19:57:57,15.08846428,0.0001456,53.2144,210.7357,94.5969,265.519,0.00011717,1.578e-05,0.0,0 STARLINK-4051,1 53273U 22086AH  23356.83191304  .00001578  00000-0  11717-3 0  9997,2 53273  53.2144 210.7357 0001456  94.5969 265.5190 15.08846428 79060,6917.861,95.437,540.733,538.719,0.0
53273.0,STARLINK-4051,PAYLOAD,2023-12-23 13:27:12,15.08842701,0.0001349,53.2137,207.467,85.5991,274.5155,8.647e-05,1.089e-05,0.0,0 STARLINK-4051,1 53273U 22086AH  23357.56055583  .00001089  00000-0  86470-4 0  9992,2 53273  53.2137 207.4670 0001349  85.5991 274.5155 15.08842701 79341,6917.872,95.437,540.67,538.804,0.0
53273.0,STARLINK-4051,PAYLOAD,2023-12-23 19:48:44,15.08838715,0.0001359,53.2148,206.2744,91.0555,269.0593,7.1643e-05,8.52e-06,0.0,0 STARLINK-4051,1 53273U 22086AH  23357.82551795  .00000852  00000-0  71643-4 0  9990,2 53273  53.2148 206.2744 0001359  91.0555 269.0593 15.08838715 79212,6917.884,95.438,540.689,538.809,0.0
53273.0,STARLINK-4051,PAYLOAD,2023-12-24 13:17:59,15.08842779,0.0001466,53.2139,203.0022,106.8132,253.3021,-1.3225e-05,-4.98e-06,0.0,0 STARLINK-4051,1 53273U 22086AH  23358.55415603 -.00000498  00000-0 -13225-4 0  9998,2 53273  53.2139 203.0022 0001466 106.8132 253.3021 15.08842779 79498,6917.872,95.437,540.751,538.723,0.0
53273.0,STARLINK-4051,PAYLOAD,2023-12-24 21:14:54,15.08847393,0.0001367,53.2139,201.5177,88.5772,271.5377,0.00014358,1.998e-05,0.0,0 STARLINK-4051,1 53273U 22086AH  23358.88535354  .00001998  00000-0  14358-3 0  9991,2 53273  53.2139 201.5177 0001367  88.5772 271.5377 15.08847393 79547,6917.858,95.437,540.668,538.777,0.0
53273.0,STARLINK-4051,PAYLOAD,2023-12-25 13:08:46,15.08838536,0.0001493,53.2144,198.5453,76.9059,283.21,0.00011467,1.537e-05,0.0,0 STARLINK-4051,1 53273U 22086AH  23359.54775908  .00001537  00000-0  11467-3 0  9993,2 53273  53.2144 198.5453 0001493  76.9059 283.2100 15.08838536 79648,6917.885,95.438,540.783,538.717,0.0
53273.0,STARLINK-4051,PAYLOAD,2023-12-25 19:30:19,15.08836802,0.000148,53.214,197.3551,73.981,286.1345,6.9314e-05,8.15e-06,0.0,0 STARLINK-4051,1 53273U 22086AH  23359.81272082  .00000815  00000-0  69314-4 0  9991,2 53273  53.2140 197.3551 0001480  73.9810 286.1345 15.08836802 79511,6917.89,95.438,540.779,538.731,0.0
53273.0,STARLINK-4051,PAYLOAD,2023-12-25 21:05:42,15.08836909,0.0001641,53.2139,197.0585,69.7103,290.4065,6.7073e-05,7.8e-06,0.0,0 STARLINK-4051,1 53273U 22086AH  23359.87896137  .00000780  00000-0  67073-4 0  9991,2 53273  53.2139 197.0585 0001641  69.7103 290.4065 15.08836909 79694,6917.89,95.438,540.89,538.62,0.0
53273.0,STARLINK-4051,PAYLOAD,2023-12-26 12:59:33,15.08849976,0.0001605,53.2152,194.0826,91.4434,268.6742,-2.5089e-05,-6.87e-06,0.0,0 STARLINK-4051,1 53273U 22086AH  23360.54135733 -.00000687  00000-0 -25089-4 0  9994,2 53273  53.2152 194.0826 0001605  91.4434 268.6742 15.08849976 79791,6917.85,95.437,540.825,538.605,0.0
53273.0,STARLINK-4051,PAYLOAD,2023-12-26 19:21:05,15.08847767,0.0001445,53.2139,192.8938,80.1606,279.9549,0.00010139,1.326e-05,0.0,0 STARLINK-4051,1 53273U 22086AH  23360.80631517  .00001326  00000-0  10139-3 0  9992,2 53273  53.2139 192.8938 0001445  80.1606 279.9549 15.08847767 79666,6917.857,95.437,540.721,538.722,0.0
53273.0,STARLINK-4051,PAYLOAD,2023-12-27 17:36:29,15.08842424,0.0001431,53.215,188.731,79.6513,280.4641,0.00011833,1.596e-05,0.0,0 STARLINK-4051,1 53273U 22086AH  23361.73367676  .00001596  00000-0  11833-3 0  9998,2 53273  53.2150 188.7310 0001431  79.6513 280.4641 15.08842424 79803,6917.873,95.437,540.728,538.748,0.0
53273.0,STARLINK-4051,PAYLOAD,2023-12-28 12:41:07,15.08841334,0.0001429,53.2145,185.1628,84.2725,275.843,3.6891e-05,2.99e-06,0.0,0 STARLINK-4051,1 53273U 22086AH  23362.52855786  .00000299  00000-0  36891-4 0  9991,2 53273  53.2145 185.1628 0001429  84.2725 275.8430 15.08841334 80090,6917.876,95.437,540.73,538.753,0.0
53273.0,STARLINK-4051,PAYLOAD,2023-12-28 19:02:39,15.08842061,0.0001367,53.2151,183.9722,92.5676,267.5472,1.3175e-05,-7.8e-07,0.0,0 STARLINK-4051,1 53273U 22086AH  23362.79351627 -.00000078  00000-0  13175-4 0  9991,2 53273  53.2151 183.9722 0001367  92.5676 267.5472 15.08842061 79962,6917.874,95.437,540.685,538.793,0.0
53273.0,STARLINK-4051,PAYLOAD,2023-12-29 12:31:54,15.08837207,0.0001395,53.2157,180.6996,91.7917,268.3234,3.5498e-05,2.77e-06,0.0,0 STARLINK-4051,1 53273U 22086AH  23363.52215837  .00000277  00000-0  35498-4 0  9997,2 53273  53.2157 180.6996 0001395  91.7917 268.3234 15.08837207 80249,6917.889,95.438,540.719,538.789,0.0
53273.0,STARLINK-4051,PAYLOAD,2023-12-29 18:53:26,15.08839277,0.0001407,53.2159,179.5102,90.015,270.1003,4.5786e-05,4.41e-06,0.0,0 STARLINK-4051,1 53273U 22086AH  23363.78711690  .00000441  00000-0  45786-4 0  9997,2 53273  53.2159 179.5102 0001407  90.0150 270.1003 15.08839277 80280,6917.883,95.438,540.721,538.774,0.0
53273.0,STARLINK-4051,PAYLOAD,2023-12-30 12:22:41,15.08837251,0.0001419,53.2159,176.2397,84.5744,275.541,4.4859e-05,4.26e-06,0.0,0 STARLINK-4051,1 53273U 22086AH  23364.51575964  .00000426  00000-0  44859-4 0  9994,2 53273  53.2159 176.2397 0001419  84.5744 275.5410 15.08837251 80225,6917.889,95.438,540.735,538.772,0.0
53273.0,STARLINK-4051,PAYLOAD,2023-12-30 17:08:51,15.0883752,0.0001374,53.2157,175.3474,88.8046,271.3103,4.2129e-05,3.83e-06,0.0,0 STARLINK-4051,1 53273U 22086AH  23364.71447954  .00000383  00000-0  42129-4 0  9993,2 53273  53.2157 175.3474 0001374  88.8046 271.3103 15.08837520 80425,6917.888,95.438,540.703,538.802,0.0
53273.0,STARLINK-4051,PAYLOAD,2023-12-31 18:35:01,15.08837612,0.0001368,53.216,170.5892,85.1997,274.9152,2.7971e-05,1.57e-06,0.0,0 STARLINK-4051,1 53273U 22086AH  23365.77432211  .00000157  00000-0  27971-4 0  9997,2 53273  53.2160 170.5892 0001368  85.1997 274.9152 15.08837612 80412,6917.888,95.438,540.699,538.806,0.0
53273.0,STARLINK-4051,PAYLOAD,2023-12-31 20:10:24,15.08837678,0.000137,53.216,170.2916,87.1761,272.9387,2.6707e-05,1.37e-06,0.0,0 STARLINK-4051,1 53273U 22086AH  23365.84056178  .00000137  00000-0  26707-4 0  9993,2 53273  53.2160 170.2916 0001370  87.1761 272.9387 15.08837678 80599,6917.887,95.438,540.7,538.805,0.0
53273.0,STARLINK-4051,PAYLOAD,2024-01-01 20:01:11,15.08839316,0.0001335,53.216,165.8314,87.5443,272.5702,4.9936e-05,5.07e-06,0.0,0 STARLINK-4051,1 53273U 22086AH  24001.83416178  .00000507  00000-0  49936-4 0  9990,2 53273  53.2160 165.8314 0001335  87.5443 272.5702 15.08839316 80579,6917.882,95.438,540.671,538.824,0.0
53273.0,STARLINK-4051,PAYLOAD,2024-01-02 10:19:39,15.08838805,0.0001313,53.2161,163.1554,88.673,271.4412,5.2082e-05,5.41e-06,0.0,0 STARLINK-4051,1 53273U 22086AH  24002.43032294  .00000541  00000-0  52082-4 0  9994,2 53273  53.2161 163.1554 0001313  88.6730 271.4412 15.08838805 80831,6917.884,95.438,540.657,538.841,0.0
53273.0,STARLINK-4051,PAYLOAD,2024-01-02 18:16:35,15.08842831,0.0001349,53.2161,161.6694,85.3718,274.7428,8.0602e-05,9.95e-06,0.0,0 STARLINK-4051,1 53273U 22086AH  24002.76151958  .00000995  00000-0  80602-4 0  9991,2 53273  53.2161 161.6694 0001349  85.3718 274.7428 15.08842831 80880,6917.872,95.437,540.67,538.804,0.0
53273.0,STARLINK-4051,PAYLOAD,2024-01-03 10:10:27,15.08838668,0.0001557,53.2168,158.6981,72.9065,287.2097,2.2461e-05,6.9e-07,0.0,0 STARLINK-4051,1 53273U 22086AH  24003.42392543  .00000069  00000-0  22461-4 0  9993,2 53273  53.2168 158.6981 0001557  72.9065 287.2097 15.08838668 80817,6917.884,95.438,540.827,538.672,0.0
53273.0,STARLINK-4051,PAYLOAD,2024-01-03 16:31:59,15.08837761,0.0001518,53.2168,157.5081,75.1253,284.9907,1.2972e-05,-8.2e-07,0.0,0 STARLINK-4051,1 53273U 22086AH  24003.68888628 -.00000082  00000-0  12972-4 0  9997,2 53273  53.2168 157.5081 0001518  75.1253 284.9907 15.08837761 81028,6917.887,95.438,540.802,538.702,0.0
53273.0,STARLINK-4051,PAYLOAD,2024-01-04 13:12:00,15.08838954,0.0001453,53.2165,153.6417,81.8628,278.2529,1.6616e-05,-2.4e-07,0.0,0 STARLINK-4051,1 53273U 22086AH  24004.55000538 -.00000024  00000-0  16616-4 0  9995,2 53273  53.2165 153.6417 0001453  81.8628 278.2529 15.08838954 81158,6917.884,95.438,540.754,538.743,0.0
53273.0,STARLINK-4051,PAYLOAD,2024-01-04 16:22:46,15.08839095,0.000142,53.2163,153.0468,84.0034,276.112,1.7886e-05,-3e-08,0.0,0 STARLINK-4051,1 53273U 22086AH  24004.68248512 -.00000003  00000-0  17886-4 0  9992,2 53273  53.2163 153.0468 0001420  84.0034 276.1120 15.08839095 81001,6917.883,95.438,540.73,538.766,0.0
